STARLINK-11515 [DTC]    
1 62556U 25006C   26068.52898438  .00291248  00000+0  21915-2 0  9991
2 62556  42.9990 141.1773 0001336 300.0472  60.0263 15.70874459 66573
ISS OBJECT XU           
1 66908U 98067XU  26068.19895314  .00161175  00000+0  13351-2 0  9996
2 66908  51.6248  68.1144 0004893  76.6698 283.4844 15.69191892 15108
